{
  "type": "FeatureCollection",
  "_comment": "Exam regions: NORTH, CENTER, SOUTH. Each point is [lon, lat], longitude first. A point that is not inside any of the three polygons is OVERSEAS.",
  "features": [
    {
      "type": "Feature",
      "properties": {"region": "NORTH"},
      "geometry": {
        "type": "Polygon",
        "coordinates": [[
          [35.555, 32.380], [35.570, 32.477], [35.577, 32.569], [35.561, 32.637],
          [35.586, 32.642], [35.656, 32.685], [35.737, 32.734], [35.935, 32.721],
          [35.965, 32.664], [36.024, 32.658], [36.079, 32.514], [36.202, 32.529],
          [36.210, 32.494], [36.402, 32.378], [36.839, 32.312], [37.077, 32.434],
          [37.207, 32.558], [37.362, 32.563], [37.521, 32.718], [37.740, 32.762],
          [37.797, 32.844], [38.363, 33.163], [40.016, 34.003], [40.640, 34.315],
          [40.978, 34.398], [41.227, 34.778], [41.220, 35.259], [41.268, 35.485],
          [41.382, 35.625], [41.369, 35.844], [41.256, 36.060], [41.295, 36.367],
          [41.402, 36.524], [41.817, 36.588], [41.979, 36.707], [42.369, 37.061],
          [42.320, 37.185], [42.348, 37.215], [42.284, 37.282], [42.205, 37.280],
          [42.207, 37.319], [42.035, 37.182], [41.517, 37.078], [41.218, 37.062],
          [40.915, 37.131], [40.835, 37.107], [40.765, 37.127], [40.530, 37.028],
          [40.413, 37.015], [40.184, 36.878], [39.821, 36.757], [39.213, 36.669],
          [39.021, 36.710], [38.739, 36.708], [38.554, 36.845], [38.242, 36.924],
          [38.045, 36.864], [38.019, 36.826], [37.783, 36.749], [37.658, 36.749],
          [37.497, 36.674], [37.473, 36.632], [37.142, 36.677], [37.086, 36.634],
          [37.020, 36.665], [37.048, 36.720], [36.996, 36.765], [36.666, 36.828],
          [36.613, 36.745], [36.629, 36.706], [36.576, 36.660], [36.591, 36.585],
          [36.544, 36.484], [36.607, 36.393], [36.604, 36.325], [36.657, 36.339],
          [36.654, 36.298], [36.692, 36.293], [36.704, 36.243], [36.624, 36.214],
          [36.504, 36.241], [36.465, 36.197], [36.395, 36.225], [36.382, 36.217],
          [36.376, 36.012], [36.340, 35.988], [36.291, 36.008], [36.295, 35.955],
          [36.187, 35.939], [36.153, 35.806], [36.115, 35.860], [35.999, 35.881],
          [36.006, 35.940], [35.923, 35.921], [35.692, 36.034], [35.664, 36.021],
          [35.571, 35.926], [35.568, 35.787], [35.471, 35.584], [35.556, 35.398],
          [35.676, 35.315], [35.686, 35.220], [35.611, 34.911], [35.350, 34.200],
          [35.050, 33.600], [34.850, 33.100], [34.800, 32.850], [34.550, 32.380],
          [35.555, 32.380]
        ]]
      }
    },
    {
      "type": "Feature",
      "properties": {"region": "CENTER"},
      "geometry": {
        "type": "Polygon",
        "coordinates": [[
          [34.400, 31.860], [34.700, 31.840], [35.515, 31.600], [35.555, 31.780],
          [35.545, 32.100], [35.555, 32.380], [34.550, 32.380], [34.400, 31.860]
        ]]
      }
    },
    {
      "type": "Feature",
      "properties": {"region": "SOUTH"},
      "geometry": {
        "type": "Polygon",
        "coordinates": [[
          [34.300, 31.600], [34.170, 31.360], [34.219, 31.323], [34.268, 31.220],
          [34.403, 30.859], [34.497, 30.679], [34.519, 30.592], [34.612, 30.371],
          [34.826, 29.807], [34.879, 29.644], [34.879, 29.543], [34.921, 29.453],
          [34.967, 29.519], [34.978, 29.544], [35.001, 29.622], [35.030, 29.772],
          [35.085, 29.886], [35.131, 30.062], [35.162, 30.123], [35.192, 30.346],
          [35.166, 30.401], [35.193, 30.499], [35.222, 30.619], [35.295, 30.735],
          [35.341, 30.816], [35.371, 30.927], [35.418, 31.004], [35.456, 31.128],
          [35.411, 31.210], [35.476, 31.493], [35.515, 31.600], [34.700, 31.840],
          [34.400, 31.860], [34.300, 31.600]
        ]]
      }
    }
  ]
}
